GSAT-10                 
1 38779U 12051B   26178.79678774 -.00000153  00000+0  00000+0 0  9990
2 38779   0.0578 257.9960 0008184 193.2541 194.5211  1.00271898 50206
INTELSAT 23 (IS-23)     
1 38867U 12057A   26179.36609308 -.00000273  00000+0  00000+0 0  9998
2 38867   0.0133  43.3574 0000312 119.9070 191.9779  1.00270878 50067
BEIDOU-2 G6             
1 38953U 12059A   26179.60708406 -.00000168  00000+0  00000+0 0  9995
2 38953   4.4501  73.4050 0009647 329.1200 176.7582  1.00271134 50028
LUCH-5B                 
1 38977U 12061A   26179.44458975 -.00000134  00000+0  00000+0 0  9992
2 38977  10.5075  49.7707 0002630 135.8539 234.7179  1.00272696 49721
YAMAL 300K              
1 38978U 12061B   26179.62961402  .00000083  00000+0  00000+0 0  9999
2 38978   0.0149 286.0033 0000550 343.8014  56.5436  1.00270472 49742
STAR ONE C3             
1 38991U 12062A   26179.50428633 -.00000238  00000+0  00000+0 0  9999
2 38991   0.0199  64.5014 0002644  42.7009 275.9496  1.00271539 49877
EUTELSAT 21B            
1 38992U 12062B   26179.59474282  .00000141  00000+0  00000+0 0  9992
2 38992   0.0662   9.0375 0002858  80.9048  62.4435  1.00272789 49949
ECHOSTAR 16             
1 39008U 12065A   26179.50697301  .00000000  00000+0  00000+0 0  9998
2 39008   0.0279  36.1830 0002092  61.8676 299.5669  1.00269737 49754
ZHONGXING-12            
1 39017U 12067A   26178.96618010 -.00000195  00000+0  00000+0 0  9995
2 39017   0.0319  93.3679 0003252 352.8700 265.1489  1.00273288 49615
EUTELSAT 70B            
1 39020U 12069A   26179.55608175 -.00000031  00000+0  00000+0 0  9997
2 39020   0.0605 357.4379 0003506 100.0236  89.8791  1.00269598 49624
YAMAL 402               
1 39022U 12070A   26179.53006424  .00000096  00000+0  00000+0 0  9998
2 39022   1.2933  84.0318 0004106   9.7867  68.5188  1.00271574 49510
SKYNET 5D               
1 39034U 12075A   26179.60080951  .00000111  00000+0  00000+0 0  9999
2 39034   0.0670 349.4217 0003900 113.3457  83.0011  1.00269526 49276
MEXSAT 3                
1 39035U 12075B   26179.56764770  .00000000  00000+0  00000+0 0  9990
2 39035   0.0253  25.8004 0001669  64.0057 276.4200  1.00268277  7163
TDRS 11                 
1 39070U 13004A   26179.57693674  .00000088  00000+0  00000+0 0  9993
2 39070   3.5373  31.4432 0004989  24.2385 254.2564  1.00273511 46809
AMAZONAS 3              
1 39078U 13006A   26179.57830774 -.00000271  00000+0  00000+0 0  9992
2 39078   0.0521 216.0615 0003028 281.4848 286.3099  1.00273599 45020
AZERSPACE 1             
1 39079U 13006B   26179.59950951  .00000145  00000+0  00000+0 0  9994
2 39079   0.0012  64.1971 0001798  56.3776  57.9410  1.00269860 48921
SBIRS GEO-2 (USA 241)   
1 39120U 13011A   26179.50922635 -.00000279  00000+0  00000+0 0  9995
2 39120   4.5133  52.5114 0001989  36.6868 320.9227  1.00271288 48641
EUTELSAT 117 WEST A     
1 39122U 13012A   26179.56730103 -.00000001  00000+0  00000+0 0  9994
2 39122   0.0257 309.7039 0003057 146.3537 268.0267  1.00271082 48541
ANIK G1                 
1 39127U 13014A   26179.56920771 -.00000062  00000+0  00000+0 0  9990
2 39127   0.0149 303.8502 0001984 152.9178 277.4999  1.00272018 48363
ZHONGXING-11            
1 39157U 13020A   26176.97210544 -.00000280  00000+0  00000+0 0  9994
2 39157   0.0191 313.2763 0002630 120.3108 288.3896  1.00271990 47980
EUTELSAT 7B             
1 39163U 13022A   26179.59179615  .00000060  00000+0  00000+0 0  9992
2 39163   0.0669  14.4140 0004264  29.8963  92.4205  1.00273402 48061
WGS F5 (USA 243)        
1 39168U 13024A   26179.29490609 -.00000273  00000+0  00000+0 0  9992
2 39168   0.0046  30.8934 0000510  43.7897 255.3734  1.00273735 47288
SES-6                   
1 39172U 13026A   26179.51113303 -.00000250  00000+0  00000+0 0  9992
2 39172   0.0195  23.2582 0002930  79.2902 317.5605  1.00270352 47833
IRNSS-1A                
1 39199U 13034A   26178.77154000  .00000050  00000+0  00000+0 0  9993
2 39199  35.7435  63.7190 0017384 184.1350   0.7758  1.00278664 47474
MUOS-2                  
1 39206U 13036A   26179.48196130 -.00000006  00000+0  00000+0 0  9995
2 39206   5.0171  45.5449 0051721 176.7383  39.8016  1.00269597 47308
ALPHASAT                
1 39215U 13038A   26179.31015950  .00000143  00000+0  00000+0 0  9990
2 39215   2.9985   1.3014 0002102  97.3338 314.3153  1.00267125 44138
INSAT-3D                
1 39216U 13038B   26179.54482344 -.00000329  00000+0  00000+0 0  9998
2 39216   1.9546  82.4095 0001165   6.0514 153.8336  1.00271038 47197
WGS F6 (USA 244)        
1 39222U 13041A   26179.56366101  .00000100  00000+0  00000+0 0  9999
2 39222   0.0189  11.9014 0000654 184.6419 147.8414  1.00273999 46179
ES'HAIL 1               
1 39233U 13044A   26179.59552284  .00000155  00000+0  00000+0 0  9996
2 39233   0.0504  18.0635 0002263  78.0055  60.5016  1.00274833 46749
GSAT-7                  
1 39234U 13044B   26179.60509073 -.00000065  00000+0  00000+0 0  9998
2 39234   0.1111  91.4699 0002572 186.3527 290.6593  1.00271940 45370
AMOS-4                  
1 39237U 13045A   26178.53401554  .00000000  00000+0  00000+0 0  9996
2 39237   0.0395  69.8069 0002125  16.1444  86.9276  1.00271153 47066
AEHF-3 (USA 246)        
1 39256U 13050A   26179.47197565  .00000035  00000+0  00000+0 0  9999
2 39256   5.3207  67.0819 0088065 188.0336  67.1701  1.00275405 45769
