OBJECT_NAME,OBJECT_ID,EPOCH,MEAN_MOTION,ECCENTRICITY,INCLINATION,RA_OF_ASC_NODE,ARG_OF_PERICENTER,MEAN_ANOMALY,EPHEMERIS_TYPE,CLASSIFICATION_TYPE,NORAD_CAT_ID,ELEMENT_SET_NO,REV_AT_EPOCH,BSTAR,MEAN_MOTION_DOT,MEAN_MOTION_DDOT
GSAT-10,2012-051B,2026-06-27T19:07:22.460736,1.00271898,.00081843,0.0578,257.9960,193.2541,194.5211,0,U,38779,999,5020,0,-.153E-5,0
INTELSAT 23 (IS-23),2012-057A,2026-06-28T08:47:10.442112,1.00270878,.00003124,0.0133,43.3574,119.9070,191.9779,0,U,38867,999,5006,0,-.273E-5,0
BEIDOU-2 G6,2012-059A,2026-06-28T14:34:12.062784,1.00271134,.00096473,4.4501,73.4050,329.1200,176.7582,0,U,38953,999,5002,0,-.168E-5,0
LUCH-5B,2012-061A,2026-06-28T10:40:12.554400,1.00272696,.00026301,10.5075,49.7707,135.8539,234.7179,0,U,38977,999,4972,0,-.134E-5,0
YAMAL 300K,2012-061B,2026-06-28T15:06:38.651328,1.00270472,.00005509,0.0149,286.0033,343.8014,56.5436,0,U,38978,999,4974,0,.83E-6,0
STAR ONE C3,2012-062A,2026-06-28T12:06:10.338912,1.00271539,.00026444,0.0199,64.5014,42.7009,275.9496,0,U,38991,999,4987,0,-.238E-5,0
EUTELSAT 21B,2012-062B,2026-06-28T14:16:25.779648,1.00272789,.00028589,0.0662,9.0375,80.9048,62.4435,0,U,38992,999,4994,0,.141E-5,0
ECHOSTAR 16,2012-065A,2026-06-28T12:10:02.468064,1.00269737,.00020925,0.0279,36.1830,61.8676,299.5669,0,U,39008,999,4975,0,0,0
ZHONGXING-12,2012-067A,2026-06-27T23:11:17.960640,1.00273288,.00032522,0.0319,93.3679,352.8700,265.1489,0,U,39017,999,4961,0,-.195E-5,0
EUTELSAT 70B,2012-069A,2026-06-28T13:20:45.463200,1.00269598,.00035066,0.0605,357.4379,100.0236,89.8791,0,U,39020,999,4962,0,-.31E-6,0
YAMAL 402,2012-070A,2026-06-28T12:43:17.550336,1.00271574,.00041066,1.2933,84.0318,9.7867,68.5188,0,U,39022,999,4951,0,.96E-6,0
SKYNET 5D,2012-075A,2026-06-28T14:25:09.941664,1.00269526,.00039009,0.0670,349.4217,113.3457,83.0011,0,U,39034,999,4927,0,.111E-5,0
MEXSAT 3,2012-075B,2026-06-28T13:37:24.761280,1.00268277,.00016691,0.0253,25.8004,64.0057,276.4200,0,U,39035,999,716,0,0,0
TDRS 11,2013-004A,2026-06-28T13:50:47.334336,1.00273511,.00049895,3.5373,31.4432,24.2385,254.2564,0,U,39070,999,4680,0,.88E-6,0
AMAZONAS 3,2013-006A,2026-06-28T13:52:45.788736,1.00273599,.00030283,0.0521,216.0615,281.4848,286.3099,0,U,39078,999,4502,0,-.271E-5,0
AZERSPACE 1,2013-006B,2026-06-28T14:23:17.621664,1.00269860,.00017986,0.0012,64.1971,56.3776,57.9410,0,U,39079,999,4892,0,.145E-5,0
SBIRS GEO-2 (USA 241),2013-011A,2026-06-28T12:13:17.156640,1.00271288,.00019894,4.5133,52.5114,36.6868,320.9227,0,U,39120,999,4864,0,-.279E-5,0
EUTELSAT 117 WEST A,2013-012A,2026-06-28T13:36:54.808992,1.00271082,.00030577,0.0257,309.7039,146.3537,268.0267,0,U,39122,999,4854,0,-.1E-7,0
ANIK G1,2013-014A,2026-06-28T13:39:39.546144,1.00272018,.00019842,0.0149,303.8502,152.9178,277.4999,0,U,39127,999,4836,0,-.62E-6,0
ZHONGXING-11,2013-020A,2026-06-25T23:19:49.910016,1.00271990,.00026305,0.0191,313.2763,120.3108,288.3896,0,U,39157,999,4798,0,-.28E-5,0
EUTELSAT 7B,2013-022A,2026-06-28T14:12:11.187360,1.00273402,.00042645,0.0669,14.4140,29.8963,92.4205,0,U,39163,999,4806,0,.6E-6,0
WGS F5 (USA 243),2013-024A,2026-06-28T07:04:39.886176,1.00273735,.00005108,0.0046,30.8934,43.7897,255.3734,0,U,39168,999,4728,0,-.273E-5,0
SES-6,2013-026A,2026-06-28T12:16:01.893792,1.00270352,.00029301,0.0195,23.2582,79.2902,317.5605,0,U,39172,999,4783,0,-.25E-5,0
IRNSS-1A,2013-034A,2026-06-27T18:31:01.056000,1.00278664,.00173842,35.7435,63.7190,184.1350,0.7758,0,U,39199,999,4747,0,.5E-6,0
MUOS-2,2013-036A,2026-06-28T11:34:01.456320,1.00269597,.00517212,5.0171,45.5449,176.7383,39.8016,0,U,39206,999,4730,0,-.6E-7,0
ALPHASAT,2013-038A,2026-06-28T07:26:37.780800,1.00267125,.00021026,2.9985,1.3014,97.3338,314.3153,0,U,39215,999,4413,0,.143E-5,0
INSAT-3D,2013-038B,2026-06-28T13:04:32.745216,1.00271038,.0001165,1.9546,82.4095,6.0514,153.8336,0,U,39216,999,4719,0,-.329E-5,0
WGS F6 (USA 244),2013-041A,2026-06-28T13:31:40.311264,1.00273999,.00006547,0.0189,11.9014,184.6419,147.8414,0,U,39222,999,4617,0,.1E-5,0
ES'HAIL 1,2013-044A,2026-06-28T14:17:33.173376,1.00274833,.00022635,0.0504,18.0635,78.0055,60.5016,0,U,39233,999,4674,0,.155E-5,0
GSAT-7,2013-044B,2026-06-28T14:31:19.839072,1.00271940,.00025722,0.1111,91.4699,186.3527,290.6593,0,U,39234,999,4537,0,-.65E-6,0
AMOS-4,2013-045A,2026-06-27T12:48:58.942656,1.00271153,.00021256,0.0395,69.8069,16.1444,86.9276,0,U,39237,999,4706,0,0,0
AEHF-3 (USA 246),2013-050A,2026-06-28T11:19:38.696160,1.00275405,.00880659,5.3207,67.0819,188.0336,67.1701,0,U,39256,999,4576,0,.35E-6,0
